[
    {
        "Altitude(m)": 604234.6010299857,
        "Argument of Periapsis(deg)": 0.0,
        "Eccentricity": 0.0,
        "Inclination(deg)": 60.0,
        "Latitude(deg)": 14.117189003559709,
        "Longitude(deg)": -13.272695350300426,
        "Mean Anomaly(deg)": -196.36359999999996,
        "RAAN(deg)": 275.0,
        "Satellite Name": "Test1 1220",
        "Satellite Number": 1220,
        "Semi-Major Axis(m)": 6980739.136638005,
        "Time(s)": 0
    },
    {
        "Altitude(m)": 604223.4299629591,
        "Argument of Periapsis(deg)": 0.00010418945913296404,
        "Eccentricity": 0.0,
        "Inclination(deg)": 60.0,
        "Latitude(deg)": 13.582325827219112,
        "Longitude(deg)": -12.985785336725302,
        "Mean Anomaly(deg)": -195.74349385453812,
        "RAAN(deg)": 274.9995799508602,
        "Satellite Name": "Test1 1220",
        "Satellite Number": 1220,
        "Semi-Major Axis(m)": 6980739.136638005,
        "Time(s)": 10
    }
]